$$SOE
2461302.500000000, A.D. 2026-Sep-19 00:00:00.0000, -2.236599627425286E+08, 2.021542078132062E+08, 4.799534892612451E+07,
2461309.500000000, A.D. 2026-Sep-26 00:00:00.0000, -2.314469592976287E+08, 1.939698653968884E+08, 5.292503237995706E+07,
2461316.500000000, A.D. 2026-Oct-03 00:00:00.0000, -2.388442048050591E+08, 1.854588651670775E+08, 5.776556888111366E+07,
2461323.500000000, A.D. 2026-Oct-10 00:00:00.0000, -2.458442241186598E+08, 1.766394141939211E+08, 6.251000917991038E+07,
2461330.500000000, A.D. 2026-Oct-17 00:00:00.0000, -2.524403004597450E+08, 1.675297246682511E+08, 6.715171265669793E+07,
2461337.500000000, A.D. 2026-Oct-24 00:00:00.0000, -2.586264460680053E+08, 1.581479881473323E+08, 7.168434082447645E+07,
2461344.500000000, A.D. 2026-Oct-31 00:00:00.0000, -2.643973734782673E+08, 1.485123526129186E+08, 7.610185046194994E+07,
2461351.500000000, A.D. 2026-Nov-07 00:00:00.0000, -2.697484672136667E+08, 1.386409021963511E+08, 8.039848645211294E+07,
2461358.500000000, A.D. 2026-Nov-14 00:00:00.0000, -2.746757558004242E+08, 1.285516402436818E+08, 8.456877446952923E+07,
2461365.500000000, A.D. 2026-Nov-21 00:00:00.0000, -2.791758860042250E+08, 1.182624761946981E+08, 8.860751381795621E+07,
2461372.500000000, A.D. 2026-Nov-28 00:00:00.0000, -2.832461003609570E+08, 1.077912130720121E+08, 9.250977033756030E+07,
2461379.500000000, A.D. 2026-Dec-05 00:00:00.0000, -2.868842144321417E+08, 9.715553474084887E+07, 9.627086905981895E+07,
2461386.500000000, A.D. 2026-Dec-12 00:00:00.0000, -2.900885936476899E+08, 8.637299586652198E+07, 9.988638689902139E+07,
2461393.500000000, A.D. 2026-Dec-19 00:00:00.0000, -2.928581316530178E+08, 7.546101439771947E+07, 1.033521456007898E+08,
2461400.500000000, A.D. 2026-Dec-26 00:00:00.0000, -2.951922303275187E+08, 6.443686554837262E+07, 1.066642049358264E+08,
2461407.500000000, A.D. 2027-Jan-02 00:00:00.0000, -2.970907812076556E+08, 5.331767693950589E+07, 1.098188561369838E+08,
2461414.500000000, A.D. 2027-Jan-09 00:00:00.0000, -2.985541481971796E+08, 4.212042478120229E+07, 1.128126156029432E+08,
2461421.500000000, A.D. 2027-Jan-16 00:00:00.0000, -2.995831515218120E+08, 3.086193097336486E+07, 1.156422188925488E+08,
2461428.500000000, A.D. 2027-Jan-23 00:00:00.0000, -3.001790528675134E+08, 1.955886096465868E+07, 1.183046150215322E+08,
2461435.500000000, A.D. 2027-Jan-30 00:00:00.0000, -3.003435414932907E+08, 8.227722205678172E+06, 1.207969610519165E+08,
2461442.500000000, A.D. 2027-Feb-06 00:00:00.0000, -3.000787208705534E+08, -3.115136578848921E+06, 1.231166169704186E+08,
2461449.500000000, A.D. 2027-Feb-13 00:00:00.0000, -2.993870962889845E+08, -1.445352419229584E+07, 1.252611410075589E+08,
2461456.500000000, A.D. 2027-Feb-20 00:00:00.0000, -2.982715657776165E+08, -2.577140473985589E+07, 1.272282855656438E+08,
2461463.500000000, A.D. 2027-Feb-27 00:00:00.0000, -2.967354129331751E+08, -3.705289768014552E+07, 1.290159933858576E+08,
2461470.500000000, A.D. 2027-Mar-06 00:00:00.0000, -2.947822986180959E+08, -4.828227830940077E+07, 1.306223938509912E+08,
2461477.500000000, A.D. 2027-Mar-13 00:00:00.0000, -2.924162530970089E+08, -5.944397670138614E+07, 1.320457997425677E+08,
2461484.500000000, A.D. 2027-Mar-20 00:00:00.0000, -2.896416697094254E+08, -7.052257601447800E+07, 1.332847044885275E+08,
2461491.500000000, A.D. 2027-Mar-27 00:00:00.0000, -2.864632998503381E+08, -8.150281079009497E+07, 1.343377798420178E+08,
2461498.500000000, A.D. 2027-Apr-03 00:00:00.0000, -2.828862490298488E+08, -9.236956535962051E+07, 1.352038739724174E+08,
2461505.500000000, A.D. 2027-Apr-10 00:00:00.0000, -2.789159739226032E+08, -1.031078724035565E+08, 1.358820099658626E+08,
2461512.500000000, A.D. 2027-Apr-17 00:00:00.0000, -2.745582803563899E+08, -1.137029117438215E+08, 1.363713847319843E+08,
2461519.500000000, A.D. 2027-Apr-24 00:00:00.0000, -2.698193221324565E+08, -1.241400094979037E+08, 1.366713683049414E+08,
2461526.500000000, A.D. 2027-May-01 00:00:00.0000, -2.647056003500478E+08, -1.344046376331020E+08, 1.367815035151592E+08,
2461533.500000000, A.D. 2027-May-08 00:00:00.0000, -2.592239628997971E+08, -1.444824132374555E+08, 1.367015060672726E+08,
2461540.500000000, A.D. 2027-May-15 00:00:00.0000, -2.533816055939699E+08, -1.543590966181842E+08, 1.364312652420870E+08,
2461547.500000000, A.D. 2027-May-22 00:00:00.0000, -2.471860764686520E+08, -1.640205908849668E+08, 1.359708451578349E+08,
2461554.500000000, A.D. 2027-May-29 00:00:00.0000, -2.406452798757762E+08, -1.734529445530561E+08, 1.353204861695139E+08,
2461561.500000000, A.D. 2027-Jun-05 00:00:00.0000, -2.337674794536659E+08, -1.826423540980149E+08, 1.344806065867615E+08,
2461568.500000000, A.D. 2027-Jun-12 00:00:00.0000, -2.265613019526521E+08, -1.915751660922051E+08, 1.334518049304592E+08,
2461575.500000000, A.D. 2027-Jun-19 00:00:00.0000, -2.190357422118284E+08, -2.002378799238599E+08, 1.322348626800359E+08,
2461582.500000000, A.D. 2027-Jun-26 00:00:00.0000, -2.112001689709257E+08, -2.086171514315670E+08, 1.308307474638324E+08,
2461589.500000000, A.D. 2027-Jul-03 00:00:00.0000, -2.030643313479680E+08, -2.166997975203752E+08, 1.292406166825256E+08,
2461596.500000000, A.D. 2027-Jul-10 00:00:00.0000, -1.946383659063861E+08, -2.244728018262364E+08, 1.274658215639102E+08,
2461603.500000000, A.D. 2027-Jul-17 00:00:00.0000, -1.859328042314687E+08, -2.319233215449005E+08, 1.255079116414623E+08,
2461610.500000000, A.D. 2027-Jul-24 00:00:00.0000, -1.769585808109884E+08, -2.390386955684170E+08, 1.233686396343964E+08,
2461617.500000000, A.D. 2027-Jul-31 00:00:00.0000, -1.677270407547074E+08, -2.458064537773134E+08, 1.210499667064988E+08,
2461624.500000000, A.D. 2027-Aug-07 00:00:00.0000, -1.582499474937150E+08, -2.522143264228166E+08, 1.185540682099617E+08,
2461631.500000000, A.D. 2027-Aug-14 00:00:00.0000, -1.485394926931086E+08, -2.582502539407760E+08, 1.158833400951050E+08,
2461638.500000000, A.D. 2027-Aug-21 00:00:00.0000, -1.386083076836692E+08, -2.639024006547092E+08, 1.130404056431135E+08,
2461645.500000000, A.D. 2027-Aug-28 00:00:00.0000, -1.284694728988687E+08, -2.691591712633554E+08, 1.100281222941716E+08,
2461652.500000000, A.D. 2027-Sep-04 00:00:00.0000, -1.181365264080008E+08, -2.740092277098100E+08, 1.068495888692990E+08,
2461659.500000000, A.D. 2027-Sep-11 00:00:00.0000, -1.076234728392770E+08, -2.784415071925583E+08, 1.035081532395169E+08,
2461666.500000000, A.D. 2027-Sep-18 00:00:00.0000, -9.694479244561814E+07, -2.824452420680837E+08, 1.000074203508472E+08,
2461673.500000000, A.D. 2027-Sep-25 00:00:00.0000, -8.611544995575815E+07, -2.860099818231575E+08, 9.635126054595996E+07,
2461680.500000000, A.D. 2027-Oct-02 00:00:00.0000, -7.515090299172924E+07, -2.891256171916498E+08, 9.254381814160548E+07,
2461687.500000000, A.D. 2027-Oct-09 00:00:00.0000, -6.406710987251016E+07, -2.917824065238646E+08, 8.858952021940333E+07,
2461694.500000000, A.D. 2027-Oct-16 00:00:00.0000, -5.288053657008458E+07, -2.939710045642193E+08, 8.449308557337588E+07,
2461701.500000000, A.D. 2027-Oct-23 00:00:00.0000, -4.160816237327256E+07, -2.956824937368950E+08, 8.025953373326348E+07,
2461708.500000000, A.D. 2027-Oct-30 00:00:00.0000, -3.026748368271746E+07, -2.969084174113280E+08, 7.589419400877696E+07,
2461715.500000000, A.D. 2027-Nov-06 00:00:00.0000, -1.887651687586313E+07, -2.976408140848569E+08, 7.140271466761300E+07,
2461722.500000000, A.D. 2027-Nov-13 00:00:00.0000, -7.453801972137894E+06, -2.978722546069746E+08, 6.679107216008392E+07,
2461729.500000000, A.D. 2027-Nov-20 00:00:00.0000, 3.981596090648179E+06, -2.975958846714133E+08, 6.206557984080633E+07,
2461736.500000000, A.D. 2027-Nov-27 00:00:00.0000, 1.541009049360430E+07, -2.968054696486862E+08, 5.723289617523067E+07,
2461743.500000000, A.D. 2027-Dec-04 00:00:00.0000, 2.681157818233106E+07, -2.954954408662254E+08, 5.230003257547908E+07,
2461750.500000000, A.D. 2027-Dec-11 00:00:00.0000, 3.816544790153133E+07, -2.936609442904241E+08, 4.727436070259583E+07,
2461757.500000000, A.D. 2027-Dec-18 00:00:00.0000, 4.945059124400441E+07, -2.912978919015092E+08, 4.216361902633049E+07,
2461764.500000000, A.D. 2027-Dec-25 00:00:00.0000, 6.064541723775712E+07, -2.884030156721867E+08, 3.697591845231733E+07,
2461771.500000000, A.D. 2028-Jan-01 00:00:00.0000, 7.172787090530404E+07, -2.849739239967951E+08, 3.171974681987797E+07,
$$EOE